start=new Date('2022-01-30T00:00:00.000Z').valueOf();
sats=[{"MEAN_MOTION_DDOT":"0.0000000000000","DECAY_DATE":null,"MEAN_ANOMALY":"24.5422","PERIOD":"96.106","INCLINATION":"69.9990","MEAN_ELEMENT_THEORY":"SGP4","PERIAPSIS":"569.194","NORAD_CAT_ID":"49159","EPHEMERIS_TYPE":"0","TLE_LINE2":"2 49159  69.9990 115.9218 0004059 287.5110  24.5422 14.98343756  3575","OBJECT_ID":"2021-082AF","ELEMENT_SET_NO":"999","BSTAR":"-0.00308350000000","FILE":"3287083","MEAN_MOTION":"14.98343756","OBJECT_TYPE":"PAYLOAD","TLE_LINE1":"1 49159U 21082AF  22029.91667824 -.00036709  00000-0 -30835-2 0  9997","LAUNCH_DATE":"2021-09-14","GP_ID":"194916309","OBJECT_NAME":"STARLINK-3056","SITE":"AFWTR","SEMIMAJOR_AXIS":"6950.150","REF_FRAME":"TEME","RA_OF_ASC_NODE":"115.9218","CENTER_NAME":"EARTH","TIME_SYSTEM":"UTC","ARG_OF_PERICENTER":"287.5110","RCS_SIZE":"LARGE","REV_AT_EPOCH":"357","EPOCH":"2022-01-29T22:00:00.999936","APOAPSIS":"574.836","ECCENTRICITY":"0.00040590","CLASSIFICATION_TYPE":"U","MEAN_MOTION_DOT":"-0.00036709","COUNTRY_CODE":"US"},{"MEAN_ELEMENT_THEORY":"SGP4","PERIAPSIS":"569.446","INCLINATION":"69.9997","PERIOD":"96.106","MEAN_ANOMALY":"79.1978","DECAY_DATE":null,"MEAN_MOTION_DDOT":"0.0000000000000","TLE_LINE2":"2 49160  69.9997 115.9223 0003693 284.3485  79.1978 14.98344588  3580","EPHEMERIS_TYPE":"0","NORAD_CAT_ID":"49160","TLE_LINE1":"1 49160U 21082AG  22029.91667824 -.00055211  00000-0 -46538-2 0  9995","OBJECT_TYPE":"PAYLOAD","MEAN_MOTION":"14.98344588","BSTAR":"-0.00465380000000","FILE":"3287083","ELEMENT_SET_NO":"999","OBJECT_ID":"2021-082AG","SEMIMAJOR_AXIS":"6950.148","SITE":"AFWTR","OBJECT_NAME":"STARLINK-3095","REF_FRAME":"TEME","GP_ID":"194914557","LAUNCH_DATE":"2021-09-14","CENTER_NAME":"EARTH","RA_OF_ASC_NODE":"115.9223","REV_AT_EPOCH":"358","RCS_SIZE":"LARGE","ARG_OF_PERICENTER":"284.3485","TIME_SYSTEM":"UTC","CLASSIFICATION_TYPE":"U","ECCENTRICITY":"0.00036930","APOAPSIS":"574.579","EPOCH":"2022-01-29T22:00:00.999936","COUNTRY_CODE":"US","MEAN_MOTION_DOT":"-0.00055211"},{"MEAN_MOTION_DDOT":"0.0000000000000","PERIAPSIS":"569.212","MEAN_ELEMENT_THEORY":"SGP4","INCLINATION":"69.9995","PERIOD":"96.107","MEAN_ANOMALY":"59.5605","DECAY_DATE":null,"EPHEMERIS_TYPE":"0","TLE_LINE2":"2 49161  69.9995 115.9232 0004082 278.2438  59.5605 14.98332889  3571","NORAD_CAT_ID":"49161","ELEMENT_SET_NO":"999","OBJECT_ID":"2021-082AH","TLE_LINE1":"1 49161U 21082AH  22029.91667824 -.00036535  00000-0 -30696-2 0  9992","MEAN_MOTION":"14.98332889","OBJECT_TYPE":"PAYLOAD","FILE":"3287083","BSTAR":"-0.00306960000000","GP_ID":"194914808","LAUNCH_DATE":"2021-09-14","SITE":"AFWTR","SEMIMAJOR_AXIS":"6950.184","OBJECT_NAME":"STARLINK-3080","REF_FRAME":"TEME","CENTER_NAME":"EARTH","RA_OF_ASC_NODE":"115.9232","REV_AT_EPOCH":"357","RCS_SIZE":"LARGE","ARG_OF_PERICENTER":"278.2438","TIME_SYSTEM":"UTC","EPOCH":"2022-01-29T22:00:00.999936","CLASSIFICATION_TYPE":"U","APOAPSIS":"574.886","ECCENTRICITY":"0.00040820","MEAN_MOTION_DOT":"-0.00036535","COUNTRY_CODE":"US"},{"LAUNCH_DATE":"2021-09-14","GP_ID":"194916059","SEMIMAJOR_AXIS":"6950.169","SITE":"AFWTR","OBJECT_NAME":"STARLINK-3082","REF_FRAME":"TEME","OBJECT_ID":"2021-082AJ","ELEMENT_SET_NO":"999","BSTAR":"-0.00307590000000","FILE":"3287083","MEAN_MOTION":"14.98337847","OBJECT_TYPE":"PAYLOAD","TLE_LINE1":"1 49162U 21082AJ  22029.91667824 -.00036613  00000-0 -30759-2 0  9990","NORAD_CAT_ID":"49162","EPHEMERIS_TYPE":"0","TLE_LINE2":"2 49162  70.0001 115.9240 0003822 284.3262 104.8878 14.98337847  3582","MEAN_MOTION_DDOT":"0.0000000000000","DECAY_DATE":null,"MEAN_ANOMALY":"104.8878","PERIOD":"96.106","INCLINATION":"70.0001","MEAN_ELEMENT_THEORY":"SGP4","PERIAPSIS":"569.377","MEAN_MOTION_DOT":"-0.00036613","COUNTRY_CODE":"US","EPOCH":"2022-01-29T22:00:00.999936","APOAPSIS":"574.690","ECCENTRICITY":"0.00038220","CLASSIFICATION_TYPE":"U","TIME_SYSTEM":"UTC","ARG_OF_PERICENTER":"284.3262","RCS_SIZE":"LARGE","REV_AT_EPOCH":"358","RA_OF_ASC_NODE":"115.9240","CENTER_NAME":"EARTH"},{"REF_FRAME":"TEME","SITE":"AFWTR","SEMIMAJOR_AXIS":"6774.609","OBJECT_NAME":"STARLINK-3088","LAUNCH_DATE":"2021-09-14","GP_ID":"194915810","MEAN_MOTION":"15.56956234","OBJECT_TYPE":"PAYLOAD","TLE_LINE1":"1 49163U 21082AK  22029.91667824 -.00660356  00000-0 -98970-2 0  9997","BSTAR":"-0.00989700000000","FILE":"3287083","ELEMENT_SET_NO":"999","OBJECT_ID":"2021-082AK","NORAD_CAT_ID":"49163","TLE_LINE2":"2 49163  69.9999  99.7577 0003457 274.6844  42.4371 15.56956234  3699","EPHEMERIS_TYPE":"0","INCLINATION":"69.9999","MEAN_ELEMENT_THEORY":"SGP4","PERIAPSIS":"394.132","DECAY_DATE":null,"PERIOD":"92.488","MEAN_ANOMALY":"42.4371","MEAN_MOTION_DDOT":"0.0000000000000","COUNTRY_CODE":"US","MEAN_MOTION_DOT":"-0.00660356","CLASSIFICATION_TYPE":"U","APOAPSIS":"398.816","ECCENTRICITY":"0.00034570","EPOCH":"2022-01-29T22:00:00.999936","RCS_SIZE":"LARGE","REV_AT_EPOCH":"369","TIME_SYSTEM":"UTC","ARG_OF_PERICENTER":"274.6844","CENTER_NAME":"EARTH","RA_OF_ASC_NODE":"99.7577"},{"MEAN_MOTION_DOT":"-0.00659772","COUNTRY_CODE":"US","EPOCH":"2022-01-29T22:00:00.999936","ECCENTRICITY":"0.00035050","APOAPSIS":"398.323","CLASSIFICATION_TYPE":"U","TIME_SYSTEM":"UTC","ARG_OF_PERICENTER":"276.4390","RCS_SIZE":"LARGE","REV_AT_EPOCH":"369","RA_OF_ASC_NODE":"99.7485","CENTER_NAME":"EARTH","LAUNCH_DATE":"2021-09-14","GP_ID":"194915057","OBJECT_NAME":"STARLINK-3106","SITE":"AFWTR","SEMIMAJOR_AXIS":"6774.083","REF_FRAME":"TEME","OBJECT_ID":"2021-082AL","ELEMENT_SET_NO":"999","BSTAR":"-0.00982050000000","FILE":"3287083","MEAN_MOTION":"15.57137526","OBJECT_TYPE":"PAYLOAD","TLE_LINE1":"1 49164U 21082AL  22029.91667824 -.00659772  00000-0 -98205-2 0  9999","NORAD_CAT_ID":"49164","TLE_LINE2":"2 49164  70.0000  99.7485 0003505 276.4390  57.2319 15.57137526  3696","EPHEMERIS_TYPE":"0","MEAN_MOTION_DDOT":"0.0000000000000","DECAY_DATE":null,"MEAN_ANOMALY":"57.2319","PERIOD":"92.477","INCLINATION":"70.0000","PERIAPSIS":"393.574","MEAN_ELEMENT_THEORY":"SGP4"},{"GP_ID":"194915308","LAUNCH_DATE":"2021-09-14","OBJECT_NAME":"STARLINK-3052","SITE":"AFWTR","SEMIMAJOR_AXIS":"6950.163","REF_FRAME":"TEME","OBJECT_ID":"2021-082AM","ELEMENT_SET_NO":"999","BSTAR":"-0.00307680000000","FILE":"3287083","TLE_LINE1":"1 49165U 21082AM  22029.91667824 -.00036624  00000-0 -30768-2 0  9995","OBJECT_TYPE":"PAYLOAD","MEAN_MOTION":"14.98339598","EPHEMERIS_TYPE":"0","TLE_LINE2":"2 49165  70.0000 115.9233 0003516 275.3885 139.4705 14.98339598  3585","NORAD_CAT_ID":"49165","MEAN_MOTION_DDOT":"0.0000000000000","PERIOD":"96.106","MEAN_ANOMALY":"139.4705","DECAY_DATE":null,"MEAN_ELEMENT_THEORY":"SGP4","PERIAPSIS":"569.585","INCLINATION":"70.0000","MEAN_MOTION_DOT":"-0.00036624","COUNTRY_CODE":"US","EPOCH":"2022-01-29T22:00:00.999936","ECCENTRICITY":"0.00035160","APOAPSIS":"574.472","CLASSIFICATION_TYPE":"U","ARG_OF_PERICENTER":"275.3885","TIME_SYSTEM":"UTC","REV_AT_EPOCH":"358","RCS_SIZE":"LARGE","RA_OF_ASC_NODE":"115.9233","CENTER_NAME":"EARTH"},{"EPHEMERIS_TYPE":"0","TLE_LINE2":"2 49166  70.0000  99.7466 0003465 271.8820  59.1777 15.57122565  3695","NORAD_CAT_ID":"49166","MEAN_MOTION_DDOT":"0.0000000000000","MEAN_ANOMALY":"59.1777","PERIOD":"92.478","DECAY_DATE":null,"PERIAPSIS":"393.644","MEAN_ELEMENT_THEORY":"SGP4","INCLINATION":"70.0000","GP_ID":"194915560","LAUNCH_DATE":"2021-09-14","SITE":"AFWTR","REF_FRAME":"TEME","SEMIMAJOR_AXIS":"6774.127","OBJECT_NAME":"STARLINK-3089","OBJECT_ID":"2021-082AN","ELEMENT_SET_NO":"999","FILE":"3287083","BSTAR":"-0.00982840000000","TLE_LINE1":"1 49166U 21082AN  22029.91667824 -.00659912  00000-0 -98284-2 0  9994","OBJECT_TYPE":"PAYLOAD","MEAN_MOTION":"15.57122565","ARG_OF_PERICENTER":"271.8820","TIME_SYSTEM":"UTC","REV_AT_EPOCH":"369","RCS_SIZE":"LARGE","RA_OF_ASC_NODE":"99.7466","CENTER_NAME":"EARTH","MEAN_MOTION_DOT":"-0.00659912","COUNTRY_CODE":"US","EPOCH":"2022-01-29T22:00:00.999936","ECCENTRICITY":"0.00034650","APOAPSIS":"398.339","CLASSIFICATION_TYPE":"U"},{"TLE_LINE2":"2 49167  69.9995 115.9085 0003267 274.0388 166.6405 14.98348888  3580","EPHEMERIS_TYPE":"0","NORAD_CAT_ID":"49167","PERIAPSIS":"569.729","MEAN_ELEMENT_THEORY":"SGP4","INCLINATION":"69.9995","PERIOD":"96.106","MEAN_ANOMALY":"166.6405","DECAY_DATE":null,"MEAN_MOTION_DDOT":"0.0000000000000","SEMIMAJOR_AXIS":"6950.134","SITE":"AFWTR","REF_FRAME":"TEME","OBJECT_NAME":"STARLINK-3054","GP_ID":"194916310","LAUNCH_DATE":"2021-09-14","TLE_LINE1":"1 49167U 21082AP  22029.91667824 -.00066917  00000-0 -56512-2 0  9990","OBJECT_TYPE":"PAYLOAD","MEAN_MOTION":"14.98348888","FILE":"3287083","BSTAR":"-0.00565120000000","ELEMENT_SET_NO":"999","OBJECT_ID":"2021-082AP","REV_AT_EPOCH":"358","RCS_SIZE":"LARGE","ARG_OF_PERICENTER":"274.0388","TIME_SYSTEM":"UTC","CENTER_NAME":"EARTH","RA_OF_ASC_NODE":"115.9085","COUNTRY_CODE":"US","MEAN_MOTION_DOT":"-0.00066917","CLASSIFICATION_TYPE":"U","APOAPSIS":"574.270","ECCENTRICITY":"0.00032670","EPOCH":"2022-01-29T22:00:00.999936"},{"TIME_SYSTEM":"UTC","ARG_OF_PERICENTER":"273.5391","RCS_SIZE":"LARGE","REV_AT_EPOCH":"369","RA_OF_ASC_NODE":"99.7430","CENTER_NAME":"EARTH","COUNTRY_CODE":"US","MEAN_MOTION_DOT":"-0.00659425","ECCENTRICITY":"0.00035000","APOAPSIS":"397.708","CLASSIFICATION_TYPE":"U","EPOCH":"2022-01-29T22:00:00.999936","NORAD_CAT_ID":"49168","EPHEMERIS_TYPE":"0","TLE_LINE2":"2 49168  70.0000  99.7430 0003500 273.5391  73.2795 15.57348327  3693","DECAY_DATE":null,"PERIOD":"92.465","MEAN_ANOMALY":"73.2795","INCLINATION":"70.0000","PERIAPSIS":"392.966","MEAN_ELEMENT_THEORY":"SGP4","MEAN_MOTION_DDOT":"0.0000000000000","SITE":"AFWTR","REF_FRAME":"TEME","SEMIMAJOR_AXIS":"6773.472","OBJECT_NAME":"STARLINK-3101","LAUNCH_DATE":"2021-09-14","GP_ID":"194914558","BSTAR":"-0.00973770000000","FILE":"3287083","MEAN_MOTION":"15.57348327","OBJECT_TYPE":"PAYLOAD","TLE_LINE1":"1 49168U 21082AQ  22029.91667824 -.00659425  00000-0 -97377-2 0  9997","OBJECT_ID":"2021-082AQ","ELEMENT_SET_NO":"999"}];
